LEMUR-2-ANDIS           
1 42838U 17042P   26068.55941107  .00023598  00000+0  79875-3 0  9998
2 42838  97.3659 249.7950 0009101   4.3248 355.8070 15.30557934473198
STARLINK-30295          
1 57683U 23124W   26068.68963448 -.00000435  00000+0 -25683-5 0  9993
2 57683  53.1601 207.0693 0001010 107.1458 252.9653 15.30187499143560
